{
  "type": "FeatureCollection",
  "features": [
    {
      "type": "Feature",
      "properties": {
        "norad_id": 35583,
        "name": "COSMOS 2251 DEB",
        "group": "cosmos-2251-debris",
        "lat": 69.755619826731,
        "lon": -30.99649748503048,
        "alt_km": 1185.0934574970051,
        "timestamp": "2025-12-19T20:43:00.482173+00:00",
        "meta_object_name": "COSMOS 2251 DEB",
        "meta_object_id": "1993-036AMA",
        "meta_epoch": "2025-12-18T06:58:43.029120",
        "meta_mean_motion": 13.55345124,
        "meta_eccentricity": 0.0385225,
        "meta_inclination": 73.916,
        "meta_ra_of_asc_node": 203.0196,
        "meta_arg_of_pericenter": 226.35,
        "meta_mean_anomaly": 130.5073,
        "meta_ephemeris_type": 0,
        "meta_classification_type": "U",
        "meta_norad_cat_id": 35583,
        "meta_element_set_no": 999,
        "meta_rev_at_epoch": 82487,
        "meta_bstar": 0.00067393273,
        "meta_mean_motion_dot": 7.28e-06,
        "meta_mean_motion_ddot": 0,
        "tle_line1": "1 35583U 93036AMA 25352.29077580  .00000728  00000+0  67393-3 0  9997",
        "tle_line2": "2 35583  73.9160 203.0196 0385225 226.3500 130.5073 13.55345124824877"
      },
      "geometry": {
        "type": "Point",
        "coordinates": [
          -30.99649748503048,
          69.755619826731
        ]
      }
    },
    {
      "type": "Feature",
      "properties": {
        "norad_id": 35585,
        "name": "COSMOS 2251 DEB",
        "group": "cosmos-2251-debris",
        "lat": -27.863114353794106,
        "lon": 165.25928305937356,
        "alt_km": 804.250060836167,
        "timestamp": "2025-12-19T20:43:00.482183+00:00",
        "meta_object_name": "COSMOS 2251 DEB",
        "meta_object_id": "1993-036AMC",
        "meta_epoch": "2025-12-18T09:07:12.258336",
        "meta_mean_motion": 13.75264082,
        "meta_eccentricity": 0.03105119,
        "meta_inclination": 73.9723,
        "meta_ra_of_asc_node": 338.9941,
        "meta_arg_of_pericenter": 250.1355,
        "meta_mean_anomaly": 180.5614,
        "meta_ephemeris_type": 0,
        "meta_classification_type": "U",
        "meta_norad_cat_id": 35585,
        "meta_element_set_no": 999,
        "meta_rev_at_epoch": 64141,
        "meta_bstar": 0.00084480695,
        "meta_mean_motion_dot": 1.126e-05,
        "meta_mean_motion_ddot": 0,
        "tle_line1": "1 35585U 93036AMC 25352.38000299  .00001126  00000+0  84481-3 0  9992",
        "tle_line2": "2 35585  73.9723 338.9941 0310511 250.1355 180.5614 13.75264082641417"
      },
      "geometry": {
        "type": "Point",
        "coordinates": [
          165.25928305937356,
          -27.863114353794106
        ]
      }
    },
    {
      "type": "Feature",
      "properties": {
        "norad_id": 35586,
        "name": "COSMOS 2251 DEB",
        "group": "cosmos-2251-debris",
        "lat": 13.265351292050239,
        "lon": 107.19270229906404,
        "alt_km": 764.2280252082028,
        "timestamp": "2025-12-19T20:43:00.482194+00:00",
        "meta_object_name": "COSMOS 2251 DEB",
        "meta_object_id": "1993-036AMD",
        "meta_epoch": "2025-12-18T14:35:36.885984",
        "meta_mean_motion": 13.5208875,
        "meta_eccentricity": 0.04044314,
        "meta_inclination": 74.0204,
        "meta_ra_of_asc_node": 293.076,
        "meta_arg_of_pericenter": 167.1463,
        "meta_mean_anomaly": 11.7227,
        "meta_ephemeris_type": 0,
        "meta_classification_type": "U",
        "meta_norad_cat_id": 35586,
        "meta_element_set_no": 999,
        "meta_rev_at_epoch": 60461,
        "meta_bstar": 0.00023975249,
        "meta_mean_motion_dot": 2.44e-06,
        "meta_mean_motion_ddot": 0,
        "tle_line1": "1 35586U 93036AMD 25352.60806581  .00000244  00000+0  23975-3 0  9997",
        "tle_line2": "2 35586  74.0204 293.0760 0404431 167.1463  11.7227 13.52088750604613"
      },
      "geometry": {
        "type": "Point",
        "coordinates": [
          107.19270229906404,
          13.265351292050239
        ]
      }
    },
    {
      "type": "Feature",
      "properties": {
        "norad_id": 35587,
        "name": "COSMOS 2251 DEB",
        "group": "cosmos-2251-debris",
        "lat": -33.02283709589527,
        "lon": -124.70168237713845,
        "alt_km": 592.654571494777,
        "timestamp": "2025-12-19T20:43:00.482205+00:00",
        "meta_object_name": "COSMOS 2251 DEB",
        "meta_object_id": "1993-036AME",
        "meta_epoch": "2025-12-17T20:25:21.555552",
        "meta_mean_motion": 14.7153897,
        "meta_eccentricity": 0.01024691,
        "meta_inclination": 74.0054,
        "meta_ra_of_asc_node": 48.4708,
        "meta_arg_of_pericenter": 235.0321,
        "meta_mean_anomaly": 124.1197,
        "meta_ephemeris_type": 0,
        "meta_classification_type": "U",
        "meta_norad_cat_id": 35587,
        "meta_element_set_no": 999,
        "meta_rev_at_epoch": 66421,
        "meta_bstar": 0.00020868501,
        "meta_mean_motion_dot": 1.37e-05,
        "meta_mean_motion_ddot": 0,
        "tle_line1": "1 35587U 93036AME 25351.85094393  .00001370  00000+0  20869-3 0  9994",
        "tle_line2": "2 35587  74.0054  48.4708 0102469 235.0321 124.1197 14.71538970664218"
      },
      "geometry": {
        "type": "Point",
        "coordinates": [
          -124.70168237713845,
          -33.02283709589527
        ]
      }
    },
    {
      "type": "Feature",
      "properties": {
        "norad_id": 35593,
        "name": "COSMOS 2251 DEB",
        "group": "cosmos-2251-debris",
        "lat": -64.06878589490523,
        "lon": 131.55683028759856,
        "alt_km": 748.4177769222615,
        "timestamp": "2025-12-19T20:43:00.482215+00:00",
        "meta_object_name": "COSMOS 2251 DEB",
        "meta_object_id": "1993-036AML",
        "meta_epoch": "2025-12-16T02:16:58.534752",
        "meta_mean_motion": 14.25610716,
        "meta_eccentricity": 0.01051822,
        "meta_inclination": 74.086,
        "meta_ra_of_asc_node": 282.4096,
        "meta_arg_of_pericenter": 288.161,
        "meta_mean_anomaly": 70.8107,
        "meta_ephemeris_type": 0,
        "meta_classification_type": "U",
        "meta_norad_cat_id": 35593,
        "meta_element_set_no": 999,
        "meta_rev_at_epoch": 85113,
        "meta_bstar": 0.00056549388,
        "meta_mean_motion_dot": 1.393e-05,
        "meta_mean_motion_ddot": 0,
        "tle_line1": "1 35593U 93036AML 25350.09512193  .00001393  00000+0  56549-3 0  9998",
        "tle_line2": "2 35593  74.0860 282.4096 0105182 288.1610  70.8107 14.25610716851130"
      },
      "geometry": {
        "type": "Point",
        "coordinates": [
          131.55683028759856,
          -64.06878589490523
        ]
      }
    },
    {
      "type": "Feature",
      "properties": {
        "norad_id": 35594,
        "name": "COSMOS 2251 DEB",
        "group": "cosmos-2251-debris",
        "lat": -6.965694193741532,
        "lon": 90.09789037864502,
        "alt_km": 625.1039658995123,
        "timestamp": "2025-12-19T20:43:00.482225+00:00",
        "meta_object_name": "COSMOS 2251 DEB",
        "meta_object_id": "1993-036AMM",
        "meta_epoch": "2025-12-17T17:07:08.312160",
        "meta_mean_motion": 14.88085261,
        "meta_eccentricity": 0.00295539,
        "meta_inclination": 73.8085,
        "meta_ra_of_asc_node": 96.479,
        "meta_arg_of_pericenter": 207.6965,
        "meta_mean_anomaly": 152.2642,
        "meta_ephemeris_type": 0,
        "meta_classification_type": "U",
        "meta_norad_cat_id": 35594,
        "meta_element_set_no": 999,
        "meta_rev_at_epoch": 88259,
        "meta_bstar": 0.0013790172,
        "meta_mean_motion_dot": 0.00012773,
        "meta_mean_motion_ddot": 0,
        "tle_line1": "1 35594U 93036AMM 25351.71329065  .00012773  00000+0  13790-2 0  9997",
        "tle_line2": "2 35594  73.8085  96.4790 0029553 207.6965 152.2642 14.88085261882590"
      },
      "geometry": {
        "type": "Point",
        "coordinates": [
          90.09789037864502,
          -6.965694193741532
        ]
      }
    },
    {
      "type": "Feature",
      "properties": {
        "norad_id": 35602,
        "name": "COSMOS 2251 DEB",
        "group": "cosmos-2251-debris",
        "lat": -48.515007285230624,
        "lon": 5.834949337914972,
        "alt_km": 405.4871204510364,
        "timestamp": "2025-12-19T20:43:00.482236+00:00",
        "meta_object_name": "COSMOS 2251 DEB",
        "meta_object_id": "1993-036AMV",
        "meta_epoch": "2025-12-18T05:07:36.279840",
        "meta_mean_motion": 15.35279766,
        "meta_eccentricity": 0.00891938,
        "meta_inclination": 73.9927,
        "meta_ra_of_asc_node": 170.4375,
        "meta_arg_of_pericenter": 234.9985,
        "meta_mean_anomaly": 242.6614,
        "meta_ephemeris_type": 0,
        "meta_classification_type": "U",
        "meta_norad_cat_id": 35602,
        "meta_element_set_no": 999,
        "meta_rev_at_epoch": 90175,
        "meta_bstar": 0.00048312432,
        "meta_mean_motion_dot": 0.00018873,
        "meta_mean_motion_ddot": 0,
        "tle_line1": "1 35602U 93036AMV 25352.21361435  .00018873  00000+0  48312-3 0  9996",
        "tle_line2": "2 35602  73.9927 170.4375 0089193 234.9985 242.6614 15.35279766901750"
      },
      "geometry": {
        "type": "Point",
        "coordinates": [
          5.834949337914972,
          -48.515007285230624
        ]
      }
    }
  ]
}